E-ST@R-II               
1 41459U 16025D   22041.67735264  .00006077  00000+0  28503-3 0  9996
2 41459  98.1687 197.8864 0153457 339.2957  20.2089 15.10189419318349
AAUSAT 4                
1 41460U 16025E   22041.75180321  .00009802  00000+0  42532-3 0  9992
2 41460  98.1654 203.1787 0138159 318.4758  40.5937 15.14276925318733
BEESAT-4                
1 41619U 16040W   22041.89341379  .00012614  00000+0  46845-3 0  9998
2 41619  97.2383  96.1110 0009570 198.2066 161.8833 15.27651470301389
CANX-7                  
1 41788U 16059F   22041.92579602  .00115041  00000+0  82084-2 0  9993
2 41788  98.2257 163.1241 0017358 164.0864 312.0541 15.03856990289421
RAVAN                   
1 41849U 16067B   22041.91935251  .00004589  00000+0  37581-3 0  9992
2 41849  97.9897 175.4184 0012280  46.6592 313.5652 14.99760721287022
CELTEE 1                
1 41850U 16067C   22041.87813777  .00001730  00000+0  15230-3 0  9999
2 41850  97.9770 170.9668 0009126  43.0554 317.1380 14.97840026286803
OPTICUBE 04             
1 41851U 16067D   22041.87732207  .00001133  00000+0  10276-3 0  9990
2 41851  97.9756 170.1601 0009436  46.8744 313.3265 14.97367014286769
AEROCUBE 8D             
1 41852U 16067E   22041.92209041  .00001601  00000+0  14197-3 0  9998
2 41852  97.9763 170.1373 0010658  46.2193 313.9908 14.97662298286755
AEROCUBE 8C             
1 41853U 16067F   22041.90060648  .00002848  00000+0  24854-3 0  9990
2 41853  97.9754 169.9536 0010972  50.1618 310.0567 14.97627479286748
PROMETHEUS 2-1          
1 41854U 16067G   22041.88114373  .00003687  00000+0  31431-3 0  9994
2 41854  97.9745 170.7964 0010171  44.1800 316.0233 14.98353895286780
PROMETHEUS 2-3          
1 41855U 16067H   22041.87566806  .00003483  00000+0  29702-3 0  9998
2 41855  97.9749 170.8601 0010425  42.8998 317.3035 14.98376090286785
INS-1B                  
1 41954U 17008G   22041.73560570  .00009616  00000+0  35190-3 0  9993
2 41954  97.2777 104.4442 0007557 337.5422  22.5486 15.28225916277377
BGUSAT                  
1 41999U 17008BD  22041.90782880  .00022194  00000+0  67898-3 0  9997
2 41999  97.2986 113.3837 0005585 334.0860  26.0103 15.33840956277202
DIDO-2                  
1 42000U 17008BE  22041.86699217  .00007318  00000+0  28151-3 0  9997
2 42000  97.2770 104.4068 0007735   0.7927 359.3323 15.26657541276746
PEASSS                  
1 42015U 17008BV  22041.72140806  .00008890  00000+0  32071-3 0  9995
2 42015  97.2823 107.4960 0005579   2.4682 357.6584 15.28728709277395
AL-FARABI 1             
1 42016U 17008BW  22041.73540402  .00012021  00000+0  40933-3 0  9990
2 42016  97.2882 109.9757 0005185 358.2329   1.8893 15.30535128277648
NAYIF-1 (EO-88)         
1 42017U 17008BX  22041.75889962  .00011701  00000+0  39759-3 0  9998
2 42017  97.2876 110.0054 0005207 357.3599   2.7614 15.30612366277673
UCLSAT                  
1 42765U 17036A   22041.87917420  .00011026  00000+0  42107-3 0  9994
2 42765  97.2187  88.6653 0011630  59.2633 300.9750 15.26738344258524
LITUANICASAT-2          
1 42768U 17036D   22041.71402305  .00016433  00000+0  57278-3 0  9993
2 42768  97.2272  90.2674 0013496  46.1953 314.0401 15.29627604257848
AALTO-1                 
1 42775U 17036L   22041.83196915  .00006235  00000+0  26088-3 0  9995
2 42775  97.2176  84.3524 0014570  58.4898 301.7761 15.23821964257486
URSA MAIOR              
1 42776U 17036M   22041.78545572  .00006490  00000+0  26836-3 0  9991
2 42776  97.2189  84.9274 0014282  57.9749 302.2874 15.24206899257507
COMPASS 2               
1 42777U 17036N   22041.89282477  .00014972  00000+0  54484-3 0  9990
2 42777  97.2257  90.2341 0011978  48.8692 311.3580 15.28255807257797
DIAMOND RED             
1 42783U 17036U   22041.85444674  .00007870  00000+0  31473-3 0  9994
2 42783  97.2199  87.0871 0012725  63.6353 296.6190 15.25283477257637
PEGASUS                 
1 42784U 17036V   22041.87128389  .00010307  00000+0  40105-3 0  9990
2 42784  97.2199  88.0370 0012397  61.4562 298.7923 15.26123639257693
DIAMOND GREEN           
1 42785U 17036W   22041.85333820  .00004858  00000+0  19531-3 0  9990
2 42785  97.2202  87.1444 0012580  64.2597 295.9938 15.25298669257706
DIAMOND BLUE            
1 42786U 17036X   22041.65579615  .00007245  00000+0  28984-3 0  9998
2 42786  97.2203  86.9456 0012552  65.3686 294.8858 15.25300284257670
NUDTSAT                 
1 42787U 17036Y   22041.97250383  .00012138  00000+0  43158-3 0  9999
2 42787  97.2230  91.4712 0011229  52.1705 308.0550 15.29072534257746
SUCHAI                  
1 42788U 17036Z   22041.65810795  .00010043  00000+0  37755-3 0  9993
2 42788  97.2208  89.1798 0011769  58.5882 301.6506 15.27282401257817
SKCUBE                  
1 42789U 17036AA  22041.67284796  .00009434  00000+0  35946-3 0  9994
2 42789  97.2206  88.7736 0011763  59.4073 300.8325 15.26851892257713
VZLUSAT-1               
1 42790U 17036AB  22041.64572374  .00012617  00000+0  44950-3 0  9997
2 42790  97.2237  91.1363 0010700  54.2703 305.9531 15.29005355257843
ROBUSTA-1B              
1 42792U 17036AD  22041.66395395  .00010044  00000+0  37862-3 0  9993
2 42792  97.2204  89.2490 0011315  59.6749 300.5608 15.27197306257752
CICERO 6                
1 42793U 17036AE  22041.87473201  .00007229  00000+0  28879-3 0  9999
2 42793  97.2181  87.6904 0011107  64.1999 296.0384 15.25367154257765
CORVUS BC2              
1 42846U 17042X   22041.85544565  .00001052  00000+0  10734-3 0  9994
2 42846  97.4404 266.2137 0010966  64.6265 295.6089 14.92546405249398
CORVUS BC1              
1 42847U 17042Y   22041.60955099  .00000915  00000+0  93840-4 0  9993
2 42847  97.4407 266.2639 0010637  64.6754 295.5567 14.92641229249364
MIRATA                  
1 43015U 17073C   22041.71179958  .00005804  00000+0  43778-3 0  9995
2 43015  97.6875 301.8050 0243545 237.0312 120.7278 14.82157868228486
MAKERSAT 0              
1 43016U 17073D   22041.68915565  .00003904  00000+0  29993-3 0  9996
2 43016  97.6903 301.5930 0248706 240.4555 117.1658 14.80990678228422
AEROCUBE 7B (OCSD B)    
1 43042U 17071F   22041.76444878  .00045748  00000+0  62226-3 0  9994
2 43042  51.6363 326.2247 0004184 120.4493 239.6913 15.57101476235836
AEROCUBE 7C (OCSD C)    
1 43043U 17071G   22041.90138641  .00050286  00000+0  69598-3 0  9991
2 43043  51.6350 326.3631 0004362 122.5126 237.6287 15.56591128235811
ASGARDIA 1              
1 43049U 17071N   22041.83940751  .00039942  00000+0  57422-3 0  9991
2 43049  51.6372 326.8765 0002820 134.6112 225.5110 15.55670859235808
ISARA                   
1 43050U 17071P   22041.06422983  .00646525  19811-3  12345-2 0  9999
2 43050  51.6204 273.4862 0007983 218.3032 141.7412 15.99954678236442
PROPCUBE 2 (FAUNA)      
1 43052U 17071R   22041.85948282  .00054074  00000+0  71474-3 0  9990
2 43052  51.6341 320.9784 0002843 139.5986 220.5217 15.57800842235871
CORVUS BC3              
1 43118U 18004H   22041.84167483  .00006390  00000+0  25487-3 0  9996
2 43118  97.3779 116.2842 0011272  90.4813 269.7717 15.25473473226902
MICROMAS-2A             
1 43131U 18004W   22041.73298744  .00015957  00000+0  54250-3 0  9993
2 43131  97.3886 121.2453 0008879  80.7818 279.4427 15.30500275227168
SPACEBEE-4              
1 43139U 18004AE  22041.76264998  .00026676  00000+0  79765-3 0  9996
2 43139  97.3971 124.9147 0007595  77.0308 283.1783 15.34517288227363
SPACEBEE-3              
1 43140U 18004AF  22041.88400894  .00044705  00000+0  11859-2 0  9990
2 43140  97.4013 127.5193 0006382  69.8523 290.3408 15.38157188227529
SPACEBEE-2              
1 43141U 18004AG  22041.75862825  .00040390  00000+0  10267-2 0  9991
2 43141  97.4038 128.3490 0005694  67.8962 292.2887 15.39496297227559
SPACEBEE-1              
1 43142U 18004AH  22041.76822972  .00048631  00000+0  11681-2 0  9999
2 43142  97.4051 129.3582 0005468  61.8877 298.2921 15.41179017227608
CICERO 7                
1 43143U 18004AJ  22041.78032988  .00009389  00000+0  32676-3 0  9997
2 43143  97.3862 121.1687 0007748  90.5410 269.6718 15.29882371227188
GOMX-4B                 
1 43196U 18015E   22041.88168980  .00003632  00000+0  14499-3 0  9998
2 43196  97.5120 180.4083 0018879 138.6153 221.6519 15.25660428223858
GOMX-4A                 
1 43197U 18015F   22041.79245558  .00005626  00000+0  21583-3 0  9993
2 43197  97.5113 180.8360 0018627 139.2846 352.7824 15.26736483223884
AEROCUBE 12A            
1 43556U 18046C   22041.82316845  .00014189  00000+0  42762-3 0  9994
2 43556  51.6396  78.7958 0006732 307.8541  52.1831 15.34549199199846
AEROCUBE 12B            
1 43557U 18046D   22041.51344505  .00011136  00000+0  34939-3 0  9991
2 43557  51.6398  83.4231 0006922 303.1246  56.9072 15.33506304199702
SURFSAT                 
1 43614U 18070B   22041.87866121  .00024687  00000+0  49513-3 0  9993
2 43614  93.0209  45.4535 0014463 143.8286 216.3953 15.46513943191459
CP7 (DAVE)              
1 43615U 18070C   22041.49942678  .00019277  00000+0  39391-3 0  9996
2 43615  93.0211  45.2089 0014565 145.8004 214.4195 15.45990085191371
ELFIN-B                 
1 43616U 18070D   22041.74289944  .00035344  00000+0  59001-3 0  9998
2 43616  93.0163  45.9439 0014100 137.3488 222.8870 15.51724264191623
ELFIN-A                 
1 43617U 18070E   22041.92391914  .00041299  00000+0  66707-3 0  9997
2 43617  93.0204  47.1338 0013659 132.3711 227.8709 15.52631271191682
CUBEBEL-1 (BSUSAT-1)    
1 43666U 18083E   22041.77070462  .00007016  00000+0  31995-3 0  9990
2 43666  97.4357  72.0268 0015581  60.0554  53.0432 15.20838153182214
CICERO 10               
1 43690U 18088A   22041.88006299  .00008113  00000+0  34676-3 0  9999
2 43690  85.0358  40.1902 0011599 250.0986 109.9007 15.22628704180488
IRVINE01                
1 43693U 18088D   22041.93144772  .00025985  00000+0  89650-3 0  9995
2 43693  85.0317  36.0185 0012933 211.4687 148.5787 15.29766106180834
